STARLINK-35453          
1 65878U 25223AA  25303.83336806 -.02079052  00000+0 -49917-1 0  9995
2 65878  53.1592 179.3590 0001054  87.9028 340.5928 15.44397050  5597
STARLINK-35418          
1 65879U 25223AB  25303.81834946  .00078864  00000+0  14105-2 0  9990
2 65879  53.1603 179.4008 0001082  83.9683 276.1449 15.49334683  4296
STARLINK-35445          
1 65880U 25223AC  25303.81903661  .00102742  00000+0  18288-2 0  9992
2 65880  53.1598 179.4049 0000980  77.4680 282.6438 15.49346361  4293
STARLINK-35464          
1 65881U 25223AD  25303.81800829  .00095865  00000+0  17077-2 0  9997
2 65881  53.1604 179.3982 0001718 122.1538 237.9638 15.49356806  4297
STARLINK-35270          
1 65882U 25224A   25303.83336806 -.00085161  00000+0 -15378-2 0  9992
2 65882  53.1585 256.6350 0001413 105.7997 230.7266 15.49345096  4963
STARLINK-35367          
1 65883U 25224B   25303.83336806 -.00084765  00000+0 -15305-2 0  9992
2 65883  53.1585 256.6271 0001485 105.5465 234.8115 15.49345791  4963
STARLINK-35384          
1 65884U 25224C   25303.83336806 -.00084777  00000+0 -15306-2 0  9997
2 65884  53.1589 256.6176 0001353 110.6719 233.5166 15.49348709  4969
STARLINK-35415          
1 65885U 25224D   25303.83336806 -.00079829  00000+0 -14402-2 0  9996
2 65885  53.1589 256.6102 0001507 106.5734 241.4537 15.49342628  4910
STARLINK-35413          
1 65886U 25224E   25303.83336806 -.00037021  00000+0 -65916-3 0  9992
2 65886  53.1590 256.6023 0001941  99.1037 252.6457 15.49373908  4910
STARLINK-35332          
1 65887U 25224F   25303.83336806 -.00037839  00000+0 -67394-3 0  9992
2 65887  53.1588 256.5983 0002026 100.0299 253.6353 15.49374826  4993
STARLINK-35362          
1 65888U 25224G   25303.83336806 -.00078121  00000+0 -14090-2 0  9996
2 65888  53.1587 256.6300 0001471 105.8067 232.6341 15.49341262  4965
STARLINK-35193          
1 65889U 25224H   25303.83336806 -.00090321  00000+0 -16287-2 0  9993
2 65889  53.1598 256.3613 0001856 120.9857 346.9348 15.49412055  4992
