CCSDS_OMM_VERS = 2.0
CREATION_DATE  = 
ORIGINATOR     = 

OBJECT_NAME    = STARLINK-35453
OBJECT_ID      = 2025-223AA
CENTER_NAME    = EARTH
REF_FRAME      = TEME
TIME_SYSTEM    = UTC
MEAN_ELEMENT_THEORY = SGP/SGP4

EPOCH          = 2025-10-30T20:00:03.000384
MEAN_MOTION    = 15.44397050
ECCENTRICITY   = .0001054
INCLINATION    = 53.1592
RA_OF_ASC_NODE = 179.3590
ARG_OF_PERICENTER = 87.9028
MEAN_ANOMALY   = 340.5928

EPHEMERIS_TYPE = 0
CLASSIFICATION_TYPE = U
NORAD_CAT_ID   = 65878
ELEMENT_SET_NO = 999
REV_AT_EPOCH   = 559
BSTAR          = -.49917E-1
MEAN_MOTION_DOT = -.2079052E-1
MEAN_MOTION_DDOT = 0

CCSDS_OMM_VERS = 2.0
CREATION_DATE  = 
ORIGINATOR     = 

OBJECT_NAME    = STARLINK-35418
OBJECT_ID      = 2025-223AB
CENTER_NAME    = EARTH
REF_FRAME      = TEME
TIME_SYSTEM    = UTC
MEAN_ELEMENT_THEORY = SGP/SGP4

EPOCH          = 2025-10-30T19:38:25.393344
MEAN_MOTION    = 15.49334683
ECCENTRICITY   = .0001082
INCLINATION    = 53.1603
RA_OF_ASC_NODE = 179.4008
ARG_OF_PERICENTER = 83.9683
MEAN_ANOMALY   = 276.1449

EPHEMERIS_TYPE = 0
CLASSIFICATION_TYPE = U
NORAD_CAT_ID   = 65879
ELEMENT_SET_NO = 999
REV_AT_EPOCH   = 429
BSTAR          = .14105E-2
MEAN_MOTION_DOT = .78864E-3
MEAN_MOTION_DDOT = 0

CCSDS_OMM_VERS = 2.0
CREATION_DATE  = 
ORIGINATOR     = 

OBJECT_NAME    = STARLINK-35445
OBJECT_ID      = 2025-223AC
CENTER_NAME    = EARTH
REF_FRAME      = TEME
TIME_SYSTEM    = UTC
MEAN_ELEMENT_THEORY = SGP/SGP4

EPOCH          = 2025-10-30T19:39:24.763104
MEAN_MOTION    = 15.49346361
ECCENTRICITY   = .000098
INCLINATION    = 53.1598
RA_OF_ASC_NODE = 179.4049
ARG_OF_PERICENTER = 77.4680
MEAN_ANOMALY   = 282.6438

EPHEMERIS_TYPE = 0
CLASSIFICATION_TYPE = U
NORAD_CAT_ID   = 65880
ELEMENT_SET_NO = 999
REV_AT_EPOCH   = 429
BSTAR          = .18288E-2
MEAN_MOTION_DOT = .102742E-2
MEAN_MOTION_DDOT = 0

CCSDS_OMM_VERS = 2.0
CREATION_DATE  = 
ORIGINATOR     = 

OBJECT_NAME    = STARLINK-35464
OBJECT_ID      = 2025-223AD
CENTER_NAME    = EARTH
REF_FRAME      = TEME
TIME_SYSTEM    = UTC
MEAN_ELEMENT_THEORY = SGP/SGP4

EPOCH          = 2025-10-30T19:37:55.916256
MEAN_MOTION    = 15.49356806
ECCENTRICITY   = .0001718
INCLINATION    = 53.1604
RA_OF_ASC_NODE = 179.3982
ARG_OF_PERICENTER = 122.1538
MEAN_ANOMALY   = 237.9638

EPHEMERIS_TYPE = 0
CLASSIFICATION_TYPE = U
NORAD_CAT_ID   = 65881
ELEMENT_SET_NO = 999
REV_AT_EPOCH   = 429
BSTAR          = .17077E-2
MEAN_MOTION_DOT = .95865E-3
MEAN_MOTION_DDOT = 0

CCSDS_OMM_VERS = 2.0
CREATION_DATE  = 
ORIGINATOR     = 

OBJECT_NAME    = STARLINK-35270
OBJECT_ID      = 2025-224A
CENTER_NAME    = EARTH
REF_FRAME      = TEME
TIME_SYSTEM    = UTC
MEAN_ELEMENT_THEORY = SGP/SGP4

EPOCH          = 2025-10-30T20:00:03.000384
MEAN_MOTION    = 15.49345096
ECCENTRICITY   = .0001413
INCLINATION    = 53.1585
RA_OF_ASC_NODE = 256.6350
ARG_OF_PERICENTER = 105.7997
MEAN_ANOMALY   = 230.7266

EPHEMERIS_TYPE = 0
CLASSIFICATION_TYPE = U
NORAD_CAT_ID   = 65882
ELEMENT_SET_NO = 999
REV_AT_EPOCH   = 496
BSTAR          = -.15378E-2
MEAN_MOTION_DOT = -.85161E-3
MEAN_MOTION_DDOT = 0

CCSDS_OMM_VERS = 2.0
CREATION_DATE  = 
ORIGINATOR     = 

OBJECT_NAME    = STARLINK-35367
OBJECT_ID      = 2025-224B
CENTER_NAME    = EARTH
REF_FRAME      = TEME
TIME_SYSTEM    = UTC
MEAN_ELEMENT_THEORY = SGP/SGP4

EPOCH          = 2025-10-30T20:00:03.000384
MEAN_MOTION    = 15.49345791
ECCENTRICITY   = .0001485
INCLINATION    = 53.1585
RA_OF_ASC_NODE = 256.6271
ARG_OF_PERICENTER = 105.5465
MEAN_ANOMALY   = 234.8115

EPHEMERIS_TYPE = 0
CLASSIFICATION_TYPE = U
NORAD_CAT_ID   = 65883
ELEMENT_SET_NO = 999
REV_AT_EPOCH   = 496
BSTAR          = -.15305E-2
MEAN_MOTION_DOT = -.84765E-3
MEAN_MOTION_DDOT = 0

CCSDS_OMM_VERS = 2.0
CREATION_DATE  = 
ORIGINATOR     = 

OBJECT_NAME    = STARLINK-35384
OBJECT_ID      = 2025-224C
CENTER_NAME    = EARTH
REF_FRAME      = TEME
TIME_SYSTEM    = UTC
MEAN_ELEMENT_THEORY = SGP/SGP4

EPOCH          = 2025-10-30T20:00:03.000384
MEAN_MOTION    = 15.49348709
ECCENTRICITY   = .0001353
INCLINATION    = 53.1589
RA_OF_ASC_NODE = 256.6176
ARG_OF_PERICENTER = 110.6719
MEAN_ANOMALY   = 233.5166

EPHEMERIS_TYPE = 0
CLASSIFICATION_TYPE = U
NORAD_CAT_ID   = 65884
ELEMENT_SET_NO = 999
REV_AT_EPOCH   = 496
BSTAR          = -.15306E-2
MEAN_MOTION_DOT = -.84777E-3
MEAN_MOTION_DDOT = 0

CCSDS_OMM_VERS = 2.0
CREATION_DATE  = 
ORIGINATOR     = 

OBJECT_NAME    = STARLINK-35415
OBJECT_ID      = 2025-224D
CENTER_NAME    = EARTH
REF_FRAME      = TEME
TIME_SYSTEM    = UTC
MEAN_ELEMENT_THEORY = SGP/SGP4

EPOCH          = 2025-10-30T20:00:03.000384
MEAN_MOTION    = 15.49342628
ECCENTRICITY   = .0001507
INCLINATION    = 53.1589
RA_OF_ASC_NODE = 256.6102
ARG_OF_PERICENTER = 106.5734
MEAN_ANOMALY   = 241.4537

EPHEMERIS_TYPE = 0
CLASSIFICATION_TYPE = U
NORAD_CAT_ID   = 65885
ELEMENT_SET_NO = 999
REV_AT_EPOCH   = 491
BSTAR          = -.14402E-2
MEAN_MOTION_DOT = -.79829E-3
MEAN_MOTION_DDOT = 0

CCSDS_OMM_VERS = 2.0
CREATION_DATE  = 
ORIGINATOR     = 

OBJECT_NAME    = STARLINK-35413
OBJECT_ID      = 2025-224E
CENTER_NAME    = EARTH
REF_FRAME      = TEME
TIME_SYSTEM    = UTC
MEAN_ELEMENT_THEORY = SGP/SGP4

EPOCH          = 2025-10-30T20:00:03.000384
MEAN_MOTION    = 15.49373908
ECCENTRICITY   = .0001941
INCLINATION    = 53.1590
RA_OF_ASC_NODE = 256.6023
ARG_OF_PERICENTER = 99.1037
MEAN_ANOMALY   = 252.6457

EPHEMERIS_TYPE = 0
CLASSIFICATION_TYPE = U
NORAD_CAT_ID   = 65886
ELEMENT_SET_NO = 999
REV_AT_EPOCH   = 491
BSTAR          = -.65916E-3
MEAN_MOTION_DOT = -.37021E-3
MEAN_MOTION_DDOT = 0

CCSDS_OMM_VERS = 2.0
CREATION_DATE  = 
ORIGINATOR     = 

OBJECT_NAME    = STARLINK-35332
OBJECT_ID      = 2025-224F
CENTER_NAME    = EARTH
REF_FRAME      = TEME
TIME_SYSTEM    = UTC
MEAN_ELEMENT_THEORY = SGP/SGP4

EPOCH          = 2025-10-30T20:00:03.000384
MEAN_MOTION    = 15.49374826
ECCENTRICITY   = .0002026
INCLINATION    = 53.1588
RA_OF_ASC_NODE = 256.5983
ARG_OF_PERICENTER = 100.0299
MEAN_ANOMALY   = 253.6353

EPHEMERIS_TYPE = 0
CLASSIFICATION_TYPE = U
NORAD_CAT_ID   = 65887
ELEMENT_SET_NO = 999
REV_AT_EPOCH   = 499
BSTAR          = -.67394E-3
MEAN_MOTION_DOT = -.37839E-3
MEAN_MOTION_DDOT = 0

CCSDS_OMM_VERS = 2.0
CREATION_DATE  = 
ORIGINATOR     = 

OBJECT_NAME    = STARLINK-35362
OBJECT_ID      = 2025-224G
CENTER_NAME    = EARTH
REF_FRAME      = TEME
TIME_SYSTEM    = UTC
MEAN_ELEMENT_THEORY = SGP/SGP4

EPOCH          = 2025-10-30T20:00:03.000384
MEAN_MOTION    = 15.49341262
ECCENTRICITY   = .0001471
INCLINATION    = 53.1587
RA_OF_ASC_NODE = 256.6300
ARG_OF_PERICENTER = 105.8067
MEAN_ANOMALY   = 232.6341

EPHEMERIS_TYPE = 0
CLASSIFICATION_TYPE = U
NORAD_CAT_ID   = 65888
ELEMENT_SET_NO = 999
REV_AT_EPOCH   = 496
BSTAR          = -.1409E-2
MEAN_MOTION_DOT = -.78121E-3
MEAN_MOTION_DDOT = 0

CCSDS_OMM_VERS = 2.0
CREATION_DATE  = 
ORIGINATOR     = 

OBJECT_NAME    = STARLINK-35193
OBJECT_ID      = 2025-224H
CENTER_NAME    = EARTH
REF_FRAME      = TEME
TIME_SYSTEM    = UTC
MEAN_ELEMENT_THEORY = SGP/SGP4

EPOCH          = 2025-10-30T20:00:03.000384
MEAN_MOTION    = 15.49412055
ECCENTRICITY   = .0001856
INCLINATION    = 53.1598
RA_OF_ASC_NODE = 256.3613
ARG_OF_PERICENTER = 120.9857
MEAN_ANOMALY   = 346.9348

EPHEMERIS_TYPE = 0
CLASSIFICATION_TYPE = U
NORAD_CAT_ID   = 65889
ELEMENT_SET_NO = 999
REV_AT_EPOCH   = 499
BSTAR          = -.16287E-2
MEAN_MOTION_DOT = -.90321E-3
MEAN_MOTION_DDOT = 0

